ONEWEB-0410             
1 51622U 22012A   26199.80671604 -.00000052  00000+0 -16722-3 0  9991
2 51622  87.9162 359.5699 0001550  49.2749 310.8517 13.17648715217865
ONEWEB-0411             
1 51623U 22012B   26199.77804888 -.00000513  00000+0 -15063-2 0  9998
2 51623  87.8821  29.9728 0002342  95.1016 265.0379 13.10372403213421
ONEWEB-0415             
1 51624U 22012C   26199.08743497 -.00000411  00000+0 -12140-2 0  9991
2 51624  87.8818  30.1079 0002134  87.0884 273.0487 13.10370291213335
ONEWEB-0416             
1 51625U 22012D   26199.78653069 -.00000606  00000+0 -17725-2 0  9994
2 51625  87.8812  29.9851 0002155  83.6095 276.5277 13.10374822213466
ONEWEB-0422             
1 51626U 22012E   26198.98154427  .00000089  00000+0  19634-3 0  9995
2 51626  87.9159 359.7341 0001986 113.6290 246.5050 13.17648504217864
ONEWEB-0423             
1 51627U 22012F   26199.81009853  .00000026  00000+0  33964-4 0  9995
2 51627  87.9150 359.5732 0001773  92.8095 267.3239 13.17648023217869
ONEWEB-0425             
1 51628U 22012G   26199.49123742 -.00002235  00000+0 -64380-2 0  9994
2 51628  87.8819  30.0279 0002166  75.7043 284.4325 13.10400242213424
ONEWEB-0428             
1 51629U 22012H   26199.77634718 -.00000398  00000+0 -11770-2 0  9999
2 51629  87.8811  29.9780 0001807  88.8288 271.3047 13.10372598213426
ONEWEB-0431             
1 51630U 22012J   26199.51660639  .00000618  00000+0  17343-2 0  9999
2 51630  87.8819  30.0224 0002420  94.9511 265.1892 13.10373647213448
ONEWEB-0434             
1 51631U 22012K   26199.49482737 -.00000255  00000+0 -76585-3 0  9991
2 51631  87.8824  30.0535 0001466  69.3472 290.7813 13.10377297213421
ONEWEB-0435             
1 51632U 22012L   26199.80689632  .00000069  00000+0  16247-3 0  9990
2 51632  87.8819  29.9746 0001940  97.9395 262.1953 13.10379540213459
ONEWEB-0436             
1 51633U 22012M   26199.72572242  .00000073  00000+0  15596-3 0  9991
2 51633  87.9157 359.5737 0001962  99.2250 260.9104 13.17647841217836
ONEWEB-0438             
1 51634U 22012N   26199.79160984 -.00000589  00000+0 -17223-2 0  9997
2 51634  87.8815  29.9818 0001788  81.2923 278.8407 13.10373439213482
ONEWEB-0439             
1 51635U 22012P   26199.48958387 -.00000476  00000+0 -13985-2 0  9992
2 51635  87.8819  30.0296 0001744  86.8944 273.2383 13.10376769213421
ONEWEB-0442             
1 51636U 22012Q   26199.41438709  .00000031  00000+0  45434-4 0  9998
2 51636  87.9148 359.6659 0001631  75.1175 285.0137 13.17650818217781
ONEWEB-0443             
1 51637U 22012R   26199.81347064 -.00000108  00000+0 -31048-3 0  9998
2 51637  87.9148 359.5878 0001562  98.8654 261.2655 13.17646368217888
ONEWEB-0444             
1 51638U 22012S   26199.78482600 -.00000618  00000+0 -18075-2 0  9991
2 51638  87.8819  29.9694 0001658  91.7504 268.3813 13.10371857213475
ONEWEB-0445             
1 51639U 22012T   26199.80518873 -.00000349  00000+0 -10351-2 0  9997
2 51639  87.8826  29.9557 0001924  85.3854 274.7493 13.10377815213481
ONEWEB-0446             
1 51640U 22012U   26199.24862400 -.00000616  00000+0 -18024-2 0  9997
2 51640  87.8815  30.0933 0002099  82.1971 277.9395 13.10371516213399
ONEWEB-0448             
1 51641U 22012V   26199.48278750 -.00000786  00000+0 -22874-2 0  9999
2 51641  87.8813  30.0419 0001794  88.5500 271.5833 13.10373052213390
ONEWEB-0449             
1 51642U 22012W   26199.79330885 -.00000658  00000+0 -19225-2 0  9996
2 51642  87.8821  29.9675 0001777  68.9539 291.1779 13.10374171213442
ONEWEB-0451             
1 51643U 22012X   26199.41859441 -.00000220  00000+0 -59935-3 0  9998
2 51643  87.9159 359.6332 0001677  89.6445 270.4879 13.17648587217779
ONEWEB-0452             
1 51644U 22012Y   26199.41691553  .00000053  00000+0  10213-3 0  9995
2 51644  87.9147 359.6674 0001567  93.3521 266.7790 13.17647675217789
ONEWEB-0456             
1 51646U 22012AA  26199.26728986 -.00000201  00000+0 -61077-3 0  9992
2 51646  87.8832  30.0618 0001828  92.7700 267.3637 13.10375074213418
ONEWEB-0457             
1 51647U 22012AB  26199.24509777 -.00000525  00000+0 -15398-2 0  9999
2 51647  87.8815  30.0813 0002056  78.7458 281.3901 13.10371587213410
ONEWEB-0458             
1 51648U 22012AC  26199.49552475 -.00000222  00000+0 -67184-3 0  9995
2 51648  87.8823  30.0201 0001617  87.6286 272.5027 13.10376267213401
ONEWEB-0461             
1 51649U 22012AD  26199.81853204 -.00000149  00000+0 -41628-3 0  9999
2 51649  87.9161 359.5671 0001911  89.8278 270.3073 13.17648612218056
ONEWEB-0463             
1 51650U 22012AE  26199.72403117 -.00000140  00000+0 -39339-3 0  9992
2 51650  87.9150 359.6055 0001987  89.9281 270.2078 13.17649062217829
ONEWEB-0464             
1 51651U 22012AF  26199.03483980 -.00000239  00000+0 -72165-3 0  9996
2 51651  87.8816  30.1328 0001616  95.2991 264.8321 13.10375658213364
ONEWEB-0468             
1 51652U 22012AG  26199.80349161 -.00000174  00000+0 -53506-3 0  9990
2 51652  87.8816  29.9727 0001728  95.5482 264.5842 13.10375495213449
